[{"OBJECT_NAME":"STARLINK-31943","OBJECT_ID":"2024-098W","EPOCH":"2025-08-01T00:54:09.654336","MEAN_MOTION":15.27605422,"ECCENTRICITY":0.0001592,"INCLINATION":43.0021,"RA_OF_ASC_NODE":88.1562,"ARG_OF_PERICENTER":259.7622,"MEAN_ANOMALY":100.305,"EPHEMERIS_TYPE":0,"CLASSIFICATION_TYPE":"U","NORAD_CAT_ID":59878,"ELEMENT_SET_NO":999,"REV_AT_EPOCH":6740,"BSTAR":9.5712e-7,"MEAN_MOTION_DOT":-2.36e-6,"MEAN_MOTION_DDOT":0},{"OBJECT_NAME":"STARLINK-31926","OBJECT_ID":"2024-098X","EPOCH":"2025-08-01T00:23:33.504864","MEAN_MOTION":15.27592525,"ECCENTRICITY":0.0001566,"INCLINATION":43.0028,"RA_OF_ASC_NODE":73.7388,"ARG_OF_PERICENTER":267.2792,"MEAN_ANOMALY":92.788,"EPHEMERIS_TYPE":0,"CLASSIFICATION_TYPE":"U","NORAD_CAT_ID":59879,"ELEMENT_SET_NO":999,"REV_AT_EPOCH":6821,"BSTAR":5.2945e-5,"MEAN_MOTION_DOT":1.195e-5,"MEAN_MOTION_DDOT":0},{"OBJECT_NAME":"STARLINK-31919","OBJECT_ID":"2024-098Y","EPOCH":"2025-07-31T23:55:39.580032","MEAN_MOTION":15.27615926,"ECCENTRICITY":0.0001723,"INCLINATION":43.0041,"RA_OF_ASC_NODE":84.3879,"ARG_OF_PERICENTER":258.7652,"MEAN_ANOMALY":101.3006,"EPHEMERIS_TYPE":0,"CLASSIFICATION_TYPE":"U","NORAD_CAT_ID":59880,"ELEMENT_SET_NO":999,"REV_AT_EPOCH":6809,"BSTAR":-0.00031747,"MEAN_MOTION_DOT":-8.998e-5,"MEAN_MOTION_DDOT":0},{"OBJECT_NAME":"STARLINK-31974","OBJECT_ID":"2024-100A","EPOCH":"2025-08-01T06:00:58.385664","MEAN_MOTION":15.27572648,"ECCENTRICITY":0.0001133,"INCLINATION":43.0013,"RA_OF_ASC_NODE":290.3175,"ARG_OF_PERICENTER":278.6853,"MEAN_ANOMALY":81.3871,"EPHEMERIS_TYPE":0,"CLASSIFICATION_TYPE":"U","NORAD_CAT_ID":59885,"ELEMENT_SET_NO":999,"REV_AT_EPOCH":6734,"BSTAR":-0.00013106,"MEAN_MOTION_DOT":-3.866e-5,"MEAN_MOTION_DDOT":0},{"OBJECT_NAME":"STARLINK-31975","OBJECT_ID":"2024-100B","EPOCH":"2025-08-01T09:13:00.414912","MEAN_MOTION":15.27549179,"ECCENTRICITY":0.0001273,"INCLINATION":43.0021,"RA_OF_ASC_NODE":289.5975,"ARG_OF_PERICENTER":272.9619,"MEAN_ANOMALY":87.1087,"EPHEMERIS_TYPE":0,"CLASSIFICATION_TYPE":"U","NORAD_CAT_ID":59886,"ELEMENT_SET_NO":999,"REV_AT_EPOCH":6745,"BSTAR":-0.00017907,"MEAN_MOTION_DOT":-5.182e-5,"MEAN_MOTION_DDOT":0},{"OBJECT_NAME":"STARLINK-31976","OBJECT_ID":"2024-100C","EPOCH":"2025-08-01T05:21:37.106496","MEAN_MOTION":15.27584784,"ECCENTRICITY":0.000119,"INCLINATION":43.0007,"RA_OF_ASC_NODE":294.4069,"ARG_OF_PERICENTER":245.0837,"MEAN_ANOMALY":114.9891,"EPHEMERIS_TYPE":0,"CLASSIFICATION_TYPE":"U","NORAD_CAT_ID":59887,"ELEMENT_SET_NO":999,"REV_AT_EPOCH":6738,"BSTAR":-8.0373e-5,"MEAN_MOTION_DOT":-2.473e-5,"MEAN_MOTION_DDOT":0},{"OBJECT_NAME":"STARLINK-31965","OBJECT_ID":"2024-100D","EPOCH":"2025-07-31T22:30:32.762016","MEAN_MOTION":15.27570032,"ECCENTRICITY":7.2e-5,"INCLINATION":43.0042,"RA_OF_ASC_NODE":292.2682,"ARG_OF_PERICENTER":22.7973,"MEAN_ANOMALY":337.291,"EPHEMERIS_TYPE":0,"CLASSIFICATION_TYPE":"U","NORAD_CAT_ID":59888,"ELEMENT_SET_NO":999,"REV_AT_EPOCH":6729,"BSTAR":-2.6461e-5,"MEAN_MOTION_DOT":-9.9e-6,"MEAN_MOTION_DDOT":0},{"OBJECT_NAME":"STARLINK-31969","OBJECT_ID":"2024-100E","EPOCH":"2025-08-01T05:57:58.321152","MEAN_MOTION":15.27562331,"ECCENTRICITY":0.0001324,"INCLINATION":43.0024,"RA_OF_ASC_NODE":286.8454,"ARG_OF_PERICENTER":275.3329,"MEAN_ANOMALY":84.7371,"EPHEMERIS_TYPE":0,"CLASSIFICATION_TYPE":"U","NORAD_CAT_ID":59889,"ELEMENT_SET_NO":999,"REV_AT_EPOCH":6747,"BSTAR":-3.803e-5,"MEAN_MOTION_DOT":-1.308e-5,"MEAN_MOTION_DDOT":0},{"OBJECT_NAME":"STARLINK-31951","OBJECT_ID":"2024-100F","EPOCH":"2025-08-01T11:55:22.903104","MEAN_MOTION":15.27599166,"ECCENTRICITY":0.0001186,"INCLINATION":43,"RA_OF_ASC_NODE":288.7242,"ARG_OF_PERICENTER":277.7552,"MEAN_ANOMALY":82.3165,"EPHEMERIS_TYPE":0,"CLASSIFICATION_TYPE":"U","NORAD_CAT_ID":59890,"ELEMENT_SET_NO":999,"REV_AT_EPOCH":6738,"BSTAR":-0.00015903,"MEAN_MOTION_DOT":-4.638e-5,"MEAN_MOTION_DDOT":0},{"OBJECT_NAME":"STARLINK-31949","OBJECT_ID":"2024-100G","EPOCH":"2025-07-31T22:04:38.627328","MEAN_MOTION":15.27564483,"ECCENTRICITY":5.31e-5,"INCLINATION":42.9995,"RA_OF_ASC_NODE":292.1293,"ARG_OF_PERICENTER":301.6661,"MEAN_ANOMALY":58.4139,"EPHEMERIS_TYPE":0,"CLASSIFICATION_TYPE":"U","NORAD_CAT_ID":59891,"ELEMENT_SET_NO":999,"REV_AT_EPOCH":6727,"BSTAR":-7.9645e-5,"MEAN_MOTION_DOT":-2.452e-5,"MEAN_MOTION_DDOT":0},{"OBJECT_NAME":"STARLINK-31977","OBJECT_ID":"2024-100H","EPOCH":"2025-08-01T11:43:50.139264","MEAN_MOTION":15.27568604,"ECCENTRICITY":0.0001167,"INCLINATION":42.9986,"RA_OF_ASC_NODE":281.7437,"ARG_OF_PERICENTER":258.3196,"MEAN_ANOMALY":101.7525,"EPHEMERIS_TYPE":0,"CLASSIFICATION_TYPE":"U","NORAD_CAT_ID":59892,"ELEMENT_SET_NO":999,"REV_AT_EPOCH":6756,"BSTAR":-5.9019e-5,"MEAN_MOTION_DOT":-1.885e-5,"MEAN_MOTION_DDOT":0},{"OBJECT_NAME":"STARLINK-31963","OBJECT_ID":"2024-100J","EPOCH":"2025-08-01T06:15:46.164672","MEAN_MOTION":15.27572825,"ECCENTRICITY":8.0e-5,"INCLINATION":43.001,"RA_OF_ASC_NODE":290.3934,"ARG_OF_PERICENTER":282.054,"MEAN_ANOMALY":78.0222,"EPHEMERIS_TYPE":0,"CLASSIFICATION_TYPE":"U","NORAD_CAT_ID":59893,"ELEMENT_SET_NO":999,"REV_AT_EPOCH":6744,"BSTAR":2.0194e-5,"MEAN_MOTION_DOT":2.94e-6,"MEAN_MOTION_DDOT":0},{"OBJECT_NAME":"STARLINK-31961","OBJECT_ID":"2024-100K","EPOCH":"2025-08-01T04:18:57.462336","MEAN_MOTION":15.2756576,"ECCENTRICITY":8.98e-5,"INCLINATION":43.0014,"RA_OF_ASC_NODE":283.723,"ARG_OF_PERICENTER":282.9127,"MEAN_ANOMALY":77.1625,"EPHEMERIS_TYPE":0,"CLASSIFICATION_TYPE":"U","NORAD_CAT_ID":59894,"ELEMENT_SET_NO":999,"REV_AT_EPOCH":6749,"BSTAR":-2.5378e-5,"MEAN_MOTION_DOT":-9.6e-6,"MEAN_MOTION_DDOT":0},{"OBJECT_NAME":"STARLINK-31964","OBJECT_ID":"2024-100L","EPOCH":"2025-08-01T11:40:29.713728","MEAN_MOTION":15.2764975,"ECCENTRICITY":0.0001542,"INCLINATION":42.9995,"RA_OF_ASC_NODE":288.6456,"ARG_OF_PERICENTER":261.7995,"MEAN_ANOMALY":98.2682,"EPHEMERIS_TYPE":0,"CLASSIFICATION_TYPE":"U","NORAD_CAT_ID":59895,"ELEMENT_SET_NO":999,"REV_AT_EPOCH":6742,"BSTAR":0.00042504,"MEAN_MOTION_DOT":0.00011477,"MEAN_MOTION_DDOT":0},{"OBJECT_NAME":"STARLINK-31905","OBJECT_ID":"2024-100M","EPOCH":"2025-08-01T04:38:36.986496","MEAN_MOTION":15.27564855,"ECCENTRICITY":0.0001103,"INCLINATION":43.0035,"RA_OF_ASC_NODE":287.2903,"ARG_OF_PERICENTER":287.3875,"MEAN_ANOMALY":72.6856,"EPHEMERIS_TYPE":0,"CLASSIFICATION_TYPE":"U","NORAD_CAT_ID":59896,"ELEMENT_SET_NO":999,"REV_AT_EPOCH":6746,"BSTAR":-2.0802e-5,"MEAN_MOTION_DOT":-8.34e-6,"MEAN_MOTION_DDOT":0},{"OBJECT_NAME":"STARLINK-31928","OBJECT_ID":"2024-100N","EPOCH":"2025-07-31T22:41:38.382432","MEAN_MOTION":15.27541412,"ECCENTRICITY":0.0002575,"INCLINATION":43.0086,"RA_OF_ASC_NODE":292.3303,"ARG_OF_PERICENTER":270.5012,"MEAN_ANOMALY":89.5545,"EPHEMERIS_TYPE":0,"CLASSIFICATION_TYPE":"U","NORAD_CAT_ID":59897,"ELEMENT_SET_NO":999,"REV_AT_EPOCH":6729,"BSTAR":0.00022771,"MEAN_MOTION_DOT":6.002e-5,"MEAN_MOTION_DDOT":0},{"OBJECT_NAME":"STARLINK-31953","OBJECT_ID":"2024-100P","EPOCH":"2025-08-01T04:33:03.325248","MEAN_MOTION":15.27576562,"ECCENTRICITY":7.73e-5,"INCLINATION":43.0017,"RA_OF_ASC_NODE":287.2609,"ARG_OF_PERICENTER":305.6553,"MEAN_ANOMALY":54.4227,"EPHEMERIS_TYPE":0,"CLASSIFICATION_TYPE":"U","NORAD_CAT_ID":59898,"ELEMENT_SET_NO":999,"REV_AT_EPOCH":6745,"BSTAR":2.6678e-5,"MEAN_MOTION_DOT":4.72e-6,"MEAN_MOTION_DDOT":0}]
