STARLINK-31943          
1 59878U 24098W   25213.03761174 -.00000236  00000+0  95712-6 0  9993
2 59878  43.0021  88.1562 0001592 259.7622 100.3050 15.27605422 67409
STARLINK-31926          
1 59879U 24098X   25213.01636001  .00001195  00000+0  52945-4 0  9995
2 59879  43.0028  73.7388 0001566 267.2792  92.7880 15.27592525 68210
STARLINK-31919          
1 59880U 24098Y   25212.99698588 -.00008998  00000+0 -31747-3 0  9997
2 59880  43.0041  84.3879 0001723 258.7652 101.3006 15.27615926 68099
STARLINK-31974          
1 59885U 24100A   25213.25067576 -.00003866  00000+0 -13106-3 0  9991
2 59885  43.0013 290.3175 0001133 278.6853  81.3871 15.27572648 67347
STARLINK-31975          
1 59886U 24100B   25213.38403258 -.00005182  00000+0 -17907-3 0  9993
2 59886  43.0021 289.5975 0001273 272.9619  87.1087 15.27549179 67455
STARLINK-31976          
1 59887U 24100C   25213.22334614 -.00002473  00000+0 -80373-4 0  9994
2 59887  43.0007 294.4069 0001190 245.0837 114.9891 15.27584784 67385
STARLINK-31965          
1 59888U 24100D   25212.93787919 -.00000990  00000+0 -26461-4 0  9992
2 59888  43.0042 292.2682 0000720  22.7973 337.2910 15.27570032 67294
STARLINK-31969          
1 59889U 24100E   25213.24859168 -.00001308  00000+0 -38030-4 0  9993
2 59889  43.0024 286.8454 0001324 275.3329  84.7371 15.27562331 67471
STARLINK-31951          
1 59890U 24100F   25213.49679286 -.00004638  00000+0 -15903-3 0  9995
2 59890  43.0000 288.7242 0001186 277.7552  82.3165 15.27599166 67384
STARLINK-31949          
1 59891U 24100G   25212.91989152 -.00002452  00000+0 -79645-4 0  9994
2 59891  42.9995 292.1293 0000531 301.6661  58.4139 15.27564483 67279
STARLINK-31977          
1 59892U 24100H   25213.48877476 -.00001885  00000+0 -59019-4 0  9995
2 59892  42.9986 281.7437 0001167 258.3196 101.7525 15.27568604 67563
STARLINK-31963          
1 59893U 24100J   25213.26095098  .00000294  00000+0  20194-4 0  9997
2 59893  43.0010 290.3934 0000800 282.0540  78.0222 15.27572825 67449
STARLINK-31961          
1 59894U 24100K   25213.17983174 -.00000960  00000+0 -25378-4 0  9990
2 59894  43.0014 283.7230 0000898 282.9127  77.1625 15.27565760 67498
STARLINK-31964          
1 59895U 24100L   25213.48645502  .00011477  00000+0  42504-3 0  9997
2 59895  42.9995 288.6456 0001542 261.7995  98.2682 15.27649750 67426
STARLINK-31905          
1 59896U 24100M   25213.19348364 -.00000834  00000+0 -20802-4 0  9997
2 59896  43.0035 287.2903 0001103 287.3875  72.6856 15.27564855 67465
STARLINK-31928          
1 59897U 24100N   25212.94558313  .00006002  00000+0  22771-3 0  9994
2 59897  43.0086 292.3303 0002575 270.5012  89.5545 15.27541412 67291
STARLINK-31953          
1 59898U 24100P   25213.18962182  .00000472  00000+0  26678-4 0  9991
2 59898  43.0017 287.2609 0000773 305.6553  54.4227 15.27576562 67456
